{
  "type": "FeatureCollection",
  "features": [
    {
      "type": "Feature",
      "properties": {
        "norad_id": 38091,
        "name": "BEIDOU-2 G5 (C05)",
        "group": "gnss",
        "lat": 2.606686386907444,
        "lon": -167.05360109687325,
        "alt_km": 35797.765562903354,
        "timestamp": "2025-12-07T03:52:32.738007+00:00",
        "meta_object_name": "BEIDOU-2 G5 (C05)",
        "meta_object_id": "2012-008A",
        "meta_epoch": "2025-12-06T12:13:57.812160",
        "meta_mean_motion": 1.00273349,
        "meta_eccentricity": 0.00124987,
        "meta_inclination": 3.093,
        "meta_ra_of_asc_node": 70.727,
        "meta_arg_of_pericenter": 226.2455,
        "meta_mean_anomaly": 20.7872,
        "meta_ephemeris_type": 0,
        "meta_classification_type": "U",
        "meta_norad_cat_id": 38091,
        "meta_element_set_no": 999,
        "meta_rev_at_epoch": 5043,
        "meta_bstar": 0,
        "meta_mean_motion_dot": 6.2e-07,
        "meta_mean_motion_ddot": 0,
        "tle_line1": "1 38091U 12008A   25340.50969690  .00000062  00000+0  00000+0 0  9996",
        "tle_line2": "2 38091   3.0930  70.7270 0012498 226.2455  20.7872  1.00273349 50438"
      },
      "geometry": {
        "type": "Point",
        "coordinates": [
          -167.05360109687325,
          2.606686386907444
        ]
      }
    },
    {
      "type": "Feature",
      "properties": {
        "norad_id": 38250,
        "name": "BEIDOU-2 M3 (C11)",
        "group": "gnss",
        "lat": 34.9418797650614,
        "lon": 103.11693815627618,
        "alt_km": 21574.404179329278,
        "timestamp": "2025-12-07T03:52:32.738019+00:00",
        "meta_object_name": "BEIDOU-2 M3 (C11)",
        "meta_object_id": "2012-018A",
        "meta_epoch": "2025-12-05T21:12:32.531040",
        "meta_mean_motion": 1.86229708,
        "meta_eccentricity": 0.00244284,
        "meta_inclination": 55.926,
        "meta_ra_of_asc_node": 311.388,
        "meta_arg_of_pericenter": 273.8805,
        "meta_mean_anomaly": 85.8231,
        "meta_ephemeris_type": 0,
        "meta_classification_type": "U",
        "meta_norad_cat_id": 38250,
        "meta_element_set_no": 999,
        "meta_rev_at_epoch": 9234,
        "meta_bstar": 0,
        "meta_mean_motion_dot": -7e-07,
        "meta_mean_motion_ddot": 0,
        "tle_line1": "1 38250U 12018A   25339.88370985 -.00000070  00000+0  00000+0 0  9996",
        "tle_line2": "2 38250  55.9260 311.3880 0024428 273.8805  85.8231  1.86229708 92342"
      },
      "geometry": {
        "type": "Point",
        "coordinates": [
          103.11693815627618,
          34.9418797650614
        ]
      }
    },
    {
      "type": "Feature",
      "properties": {
        "norad_id": 38251,
        "name": "BEIDOU-2 M4 (C12)",
        "group": "gnss",
        "lat": -1.597399338678202,
        "lon": 131.63828078756603,
        "alt_km": 21532.6083113714,
        "timestamp": "2025-12-07T03:52:32.738031+00:00",
        "meta_object_name": "BEIDOU-2 M4 (C12)",
        "meta_object_id": "2012-018B",
        "meta_epoch": "2025-12-05T06:41:27.869856",
        "meta_mean_motion": 1.86229397,
        "meta_eccentricity": 0.00155808,
        "meta_inclination": 55.8281,
        "meta_ra_of_asc_node": 310.638,
        "meta_arg_of_pericenter": 277.012,
        "meta_mean_anomaly": 82.7935,
        "meta_ephemeris_type": 0,
        "meta_classification_type": "U",
        "meta_norad_cat_id": 38251,
        "meta_element_set_no": 999,
        "meta_rev_at_epoch": 9233,
        "meta_bstar": 0,
        "meta_mean_motion_dot": -6.9e-07,
        "meta_mean_motion_ddot": 0,
        "tle_line1": "1 38251U 12018B   25339.27879479 -.00000069  00000+0  00000+0 0  9990",
        "tle_line2": "2 38251  55.8281 310.6380 0015580 277.0120  82.7935  1.86229397 92337"
      },
      "geometry": {
        "type": "Point",
        "coordinates": [
          131.63828078756603,
          -1.597399338678202
        ]
      }
    },
    {
      "type": "Feature",
      "properties": {
        "norad_id": 38652,
        "name": "SES-5 (EGNOS/PRN 136)",
        "group": "gnss",
        "lat": -0.008993977424881162,
        "lon": 139.2669072470783,
        "alt_km": 35790.04253172789,
        "timestamp": "2025-12-07T03:52:32.738043+00:00",
        "meta_object_name": "SES-5 (EGNOS/PRN 136)",
        "meta_object_id": "2012-036A",
        "meta_epoch": "2025-12-06T10:19:38.595648",
        "meta_mean_motion": 1.0027052,
        "meta_eccentricity": 0.00022564,
        "meta_inclination": 0.0575,
        "meta_ra_of_asc_node": 304.8797,
        "meta_arg_of_pericenter": 306.7879,
        "meta_mean_anomaly": 343.6893,
        "meta_ephemeris_type": 0,
        "meta_classification_type": "U",
        "meta_norad_cat_id": 38652,
        "meta_element_set_no": 999,
        "meta_rev_at_epoch": 4253,
        "meta_bstar": 0,
        "meta_mean_motion_dot": 4.1e-07,
        "meta_mean_motion_ddot": 0,
        "tle_line1": "1 38652U 12036A   25340.43030782  .00000041  00000+0  00000+0 0  9990",
        "tle_line2": "2 38652   0.0575 304.8797 0002256 306.7879 343.6893  1.00270520 42533"
      },
      "geometry": {
        "type": "Point",
        "coordinates": [
          139.2669072470783,
          -0.008993977424881162
        ]
      }
    },
    {
      "type": "Feature",
      "properties": {
        "norad_id": 38775,
        "name": "BEIDOU-2 M6 (C14)",
        "group": "gnss",
        "lat": 13.322493212597935,
        "lon": 78.31462681446075,
        "alt_km": 21500.146871711386,
        "timestamp": "2025-12-07T03:52:32.738057+00:00",
        "meta_object_name": "BEIDOU-2 M6 (C14)",
        "meta_object_id": "2012-050B",
        "meta_epoch": "2025-12-06T01:31:40.746720",
        "meta_mean_motion": 1.86230698,
        "meta_eccentricity": 0.00109594,
        "meta_inclination": 56.3729,
        "meta_ra_of_asc_node": 69.2891,
        "meta_arg_of_pericenter": 345.8795,
        "meta_mean_anomaly": 14.1028,
        "meta_ephemeris_type": 0,
        "meta_classification_type": "U",
        "meta_norad_cat_id": 38775,
        "meta_element_set_no": 999,
        "meta_rev_at_epoch": 8971,
        "meta_bstar": 0,
        "meta_mean_motion_dot": -4.7e-07,
        "meta_mean_motion_ddot": 0,
        "tle_line1": "1 38775U 12050B   25340.06366605 -.00000047  00000+0  00000+0 0  9994",
        "tle_line2": "2 38775  56.3729  69.2891 0010959 345.8795  14.1028  1.86230698 89718"
      },
      "geometry": {
        "type": "Point",
        "coordinates": [
          78.31462681446075,
          13.322493212597935
        ]
      }
    },
    {
      "type": "Feature",
      "properties": {
        "norad_id": 38779,
        "name": "GSAT-10 (GAGAN/PRN 128)",
        "group": "gnss",
        "lat": -0.029096131207320075,
        "lon": -142.68731123138016,
        "alt_km": 35785.292452191716,
        "timestamp": "2025-12-07T03:52:32.738070+00:00",
        "meta_object_name": "GSAT-10 (GAGAN/PRN 128)",
        "meta_object_id": "2012-051B",
        "meta_epoch": "2025-12-06T12:20:49.655040",
        "meta_mean_motion": 1.00273401,
        "meta_eccentricity": 0.00022359,
        "meta_inclination": 0.024,
        "meta_ra_of_asc_node": 263.6886,
        "meta_arg_of_pericenter": 226.1309,
        "meta_mean_anomaly": 213.9058,
        "meta_ephemeris_type": 0,
        "meta_classification_type": "U",
        "meta_norad_cat_id": 38779,
        "meta_element_set_no": 999,
        "meta_rev_at_epoch": 4816,
        "meta_bstar": 0,
        "meta_mean_motion_dot": -1.58e-06,
        "meta_mean_motion_ddot": 0,
        "tle_line1": "1 38779U 12051B   25340.51446360 -.00000158  00000+0  00000+0 0  9999",
        "tle_line2": "2 38779   0.0240 263.6886 0002235 226.1309 213.9058  1.00273401 48161"
      },
      "geometry": {
        "type": "Point",
        "coordinates": [
          -142.68731123138016,
          -0.029096131207320075
        ]
      }
    },
    {
      "type": "Feature",
      "properties": {
        "norad_id": 38833,
        "name": "GPS BIIF-3  (PRN 24)",
        "group": "gnss",
        "lat": -27.132322403583935,
        "lon": -6.283603087550586,
        "alt_km": 20589.76030039091,
        "timestamp": "2025-12-07T03:52:32.738084+00:00",
        "meta_object_name": "GPS BIIF-3  (PRN 24)",
        "meta_object_id": "2012-053A",
        "meta_epoch": "2025-12-05T20:54:28.108224",
        "meta_mean_motion": 2.00564871,
        "meta_eccentricity": 0.01756137,
        "meta_inclination": 53.5564,
        "meta_ra_of_asc_node": 151.5199,
        "meta_arg_of_pericenter": 63.8922,
        "meta_mean_anomaly": 297.9105,
        "meta_ephemeris_type": 0,
        "meta_classification_type": "U",
        "meta_norad_cat_id": 38833,
        "meta_element_set_no": 999,
        "meta_rev_at_epoch": 9556,
        "meta_bstar": 0,
        "meta_mean_motion_dot": 6.1e-07,
        "meta_mean_motion_ddot": 0,
        "tle_line1": "1 38833U 12053A   25339.87115866  .00000061  00000+0  00000+0 0  9995",
        "tle_line2": "2 38833  53.5564 151.5199 0175613  63.8922 297.9105  2.00564871 95560"
      },
      "geometry": {
        "type": "Point",
        "coordinates": [
          -6.283603087550586,
          -27.132322403583935
        ]
      }
    }
  ]
}